{
  "type": "FeatureCollection",
  "features": [
    {
      "type": "Feature",
      "properties": { "ecoregion_key": "GOM", "ecoregion_name": "Gulf of Mexico" },
      "geometry": {
        "type": "Polygon",
        "coordinates": [
          [
            [-98, 22],
            [-80, 22],
            [-80, 31],
            [-98, 31],
            [-98, 22]
          ]
        ]
      }
    },
    {
      "type": "Feature",
      "properties": { "ecoregion_key": "CCA", "ecoregion_name": "California Current" },
      "geometry": {
        "type": "Polygon",
        "coordinates": [
          [
            [-130, 32],
            [-117, 32],
            [-117, 45],
            [-130, 45],
            [-130, 32]
          ]
        ]
      }
    },
    {
      "type": "Feature",
      "properties": { "ecoregion_key": "MAB", "ecoregion_name": "Mid-Atlantic Bight" },
      "geometry": {
        "type": "Polygon",
        "coordinates": [
          [
            [-76, 35],
            [-68, 35],
            [-68, 41],
            [-76, 41],
            [-76, 35]
          ]
        ]
      }
    },
    {
      "type": "Feature",
      "properties": { "ecoregion_key": "GOA", "ecoregion_name": "Gulf of Alaska" },
      "geometry": {
        "type": "Polygon",
        "coordinates": [
          [
            [-162, 54],
            [-140, 54],
            [-140, 61],
            [-162, 61],
            [-162, 54]
          ]
        ]
      }
    }
  ]
}
