{
  "type": "FeatureCollection",
  "features": [
    {
      "type": "Feature",
      "properties": {
        "programarea_key": "ALA",
        "programarea_name": "Aleutian Arc"
      },
      "geometry": {
        "type": "Polygon",
        "coordinates": [
          [
            [-170, 20],
            [-168, 20],
            [-168, 22],
            [-170, 22],
            [-170, 20]
          ]
        ]
      }
    },
    {
      "type": "Feature",
      "properties": {
        "programarea_key": "ALB",
        "programarea_name": "Albemarle"
      },
      "geometry": {
        "type": "Polygon",
        "coordinates": [
          [
            [-164, 20],
            [-162, 20],
            [-162, 22],
            [-164, 22],
            [-164, 20]
          ]
        ]
      }
    },
    {
      "type": "Feature",
      "properties": {
        "programarea_key": "BFT",
        "programarea_name": "Beaufort"
      },
      "geometry": {
        "type": "Polygon",
        "coordinates": [
          [
            [-158, 20],
            [-156, 20],
            [-156, 22],
            [-158, 22],
            [-158, 20]
          ]
        ]
      }
    },
    {
      "type": "Feature",
      "properties": {
        "programarea_key": "BOW",
        "programarea_name": "Bowhead"
      },
      "geometry": {
        "type": "Polygon",
        "coordinates": [
          [
            [-152, 20],
            [-150, 20],
            [-150, 22],
            [-152, 22],
            [-152, 20]
          ]
        ]
      }
    },
    {
      "type": "Feature",
      "properties": {
        "programarea_key": "CEC",
        "programarea_name": "Central California"
      },
      "geometry": {
        "type": "Polygon",
        "coordinates": [
          [
            [-146, 20],
            [-144, 20],
            [-144, 22],
            [-146, 22],
            [-146, 20]
          ]
        ]
      }
    },
    {
      "type": "Feature",
      "properties": {
        "programarea_key": "CHU",
        "programarea_name": "Chukchi"
      },
      "geometry": {
        "type": "Polygon",
        "coordinates": [
          [
            [-170, 26],
            [-168, 26],
            [-168, 28],
            [-170, 28],
            [-170, 26]
          ]
        ]
      }
    },
    {
      "type": "Feature",
      "properties": {
        "programarea_key": "COK",
        "programarea_name": "Cook Inlet"
      },
      "geometry": {
        "type": "Polygon",
        "coordinates": [
          [
            [-164, 26],
            [-162, 26],
            [-162, 28],
            [-164, 28],
            [-164, 26]
          ]
        ]
      }
    },
    {
      "type": "Feature",
      "properties": {
        "programarea_key": "GAA",
        "programarea_name": "Gulf of America, Eastern"
      },
      "geometry": {
        "type": "Polygon",
        "coordinates": [
          [
            [-158, 26],
            [-156, 26],
            [-156, 28],
            [-158, 28],
            [-158, 26]
          ]
        ]
      }
    },
    {
      "type": "Feature",
      "properties": {
        "programarea_key": "GAB",
        "programarea_name": "Gulf of America, Western"
      },
      "geometry": {
        "type": "Polygon",
        "coordinates": [
          [
            [-152, 26],
            [-150, 26],
            [-150, 28],
            [-152, 28],
            [-152, 26]
          ]
        ]
      }
    },
    {
      "type": "Feature",
      "properties": {
        "programarea_key": "GEO",
        "programarea_name": "Georgia"
      },
      "geometry": {
        "type": "Polygon",
        "coordinates": [
          [
            [-146, 26],
            [-144, 26],
            [-144, 28],
            [-146, 28],
            [-146, 26]
          ]
        ]
      }
    },
    {
      "type": "Feature",
      "properties": {
        "programarea_key": "GOA",
        "programarea_name": "Gulf of Alaska"
      },
      "geometry": {
        "type": "Polygon",
        "coordinates": [
          [
            [-170, 32],
            [-168, 32],
            [-168, 34],
            [-170, 34],
            [-170, 32]
          ]
        ]
      }
    },
    {
      "type": "Feature",
      "properties": {
        "programarea_key": "HAR",
        "programarea_name": "Hawaii Range"
      },
      "geometry": {
        "type": "Polygon",
        "coordinates": [
          [
            [-164, 32],
            [-162, 32],
            [-162, 34],
            [-164, 34],
            [-164, 32]
          ]
        ]
      }
    },
    {
      "type": "Feature",
      "properties": {
        "programarea_key": "HOP",
        "programarea_name": "Hope Basin"
      },
      "geometry": {
        "type": "Polygon",
        "coordinates": [
          [
            [-158, 32],
            [-156, 32],
            [-156, 34],
            [-158, 34],
            [-158, 32]
          ]
        ]
      }
    },
    {
      "type": "Feature",
      "properties": {
        "programarea_key": "KOD",
        "programarea_name": "Kodiak"
      },
      "geometry": {
        "type": "Polygon",
        "coordinates": [
          [
            [-152, 32],
            [-150, 32],
            [-150, 34],
            [-152, 34],
            [-152, 32]
          ]
        ]
      }
    },
    {
      "type": "Feature",
      "properties": {
        "programarea_key": "MAT",
        "programarea_name": "Mid Atlantic"
      },
      "geometry": {
        "type": "Polygon",
        "coordinates": [
          [
            [-146, 32],
            [-144, 32],
            [-144, 34],
            [-146, 34],
            [-146, 32]
          ]
        ]
      }
    },
    {
      "type": "Feature",
      "properties": {
        "programarea_key": "NAV",
        "programarea_name": "Navarin"
      },
      "geometry": {
        "type": "Polygon",
        "coordinates": [
          [
            [-170, 38],
            [-168, 38],
            [-168, 40],
            [-170, 40],
            [-170, 38]
          ]
        ]
      }
    },
    {
      "type": "Feature",
      "properties": {
        "programarea_key": "NOC",
        "programarea_name": "North Carolina"
      },
      "geometry": {
        "type": "Polygon",
        "coordinates": [
          [
            [-164, 38],
            [-162, 38],
            [-162, 40],
            [-164, 40],
            [-164, 38]
          ]
        ]
      }
    },
    {
      "type": "Feature",
      "properties": {
        "programarea_key": "NOR",
        "programarea_name": "Norton"
      },
      "geometry": {
        "type": "Polygon",
        "coordinates": [
          [
            [-158, 38],
            [-156, 38],
            [-156, 40],
            [-158, 40],
            [-158, 38]
          ]
        ]
      }
    },
    {
      "type": "Feature",
      "properties": {
        "programarea_key": "SHU",
        "programarea_name": "Shumagin"
      },
      "geometry": {
        "type": "Polygon",
        "coordinates": [
          [
            [-152, 38],
            [-150, 38],
            [-150, 40],
            [-152, 40],
            [-152, 38]
          ]
        ]
      }
    },
    {
      "type": "Feature",
      "properties": {
        "programarea_key": "SOC",
        "programarea_name": "South Carolina"
      },
      "geometry": {
        "type": "Polygon",
        "coordinates": [
          [
            [-146, 38],
            [-144, 38],
            [-144, 40],
            [-146, 40],
            [-146, 38]
          ]
        ]
      }
    }
  ]
}
